$$SOE
2461288.500000000, A.D. 2026-Sep-05 00:00:00.0000, 1.452123217159242E+08, -5.495813656147547E+09, 1.330573950455041E+09,
2461295.500000000, A.D. 2026-Sep-12 00:00:00.0000, 1.485454556151691E+08, -5.496212092079424E+09, 1.330529939613071E+09,
2461302.500000000, A.D. 2026-Sep-19 00:00:00.0000, 1.518785767223899E+08, -5.496609102866794E+09, 1.330485571581185E+09,
2461309.500000000, A.D. 2026-Sep-26 00:00:00.0000, 1.552116829721113E+08, -5.497004690329700E+09, 1.330440846563935E+09,
2461316.500000000, A.D. 2026-Oct-03 00:00:00.0000, 1.585447727479939E+08, -5.497398856635703E+09, 1.330395764727623E+09,
2461323.500000000, A.D. 2026-Oct-10 00:00:00.0000, 1.618778448664879E+08, -5.497791604157194E+09, 1.330350326209419E+09,
2461330.500000000, A.D. 2026-Oct-17 00:00:00.0000, 1.652108985255503E+08, -5.498182935402269E+09, 1.330304531122823E+09,
2461337.500000000, A.D. 2026-Oct-24 00:00:00.0000, 1.685439332428010E+08, -5.498572853041672E+09, 1.330258379555465E+09,
2461344.500000000, A.D. 2026-Oct-31 00:00:00.0000, 1.718769488818963E+08, -5.498961360098481E+09, 1.330211871544883E+09,
2461351.500000000, A.D. 2026-Nov-07 00:00:00.0000, 1.752099461061759E+08, -5.499348460226427E+09, 1.330165007007381E+09,
2461358.500000000, A.D. 2026-Nov-14 00:00:00.0000, 1.785429274604658E+08, -5.499734157189399E+09, 1.330117785674264E+09,
2461365.500000000, A.D. 2026-Nov-21 00:00:00.0000, 1.818758972692804E+08, -5.500118452860326E+09, 1.330070207257591E+09,
2461372.500000000, A.D. 2026-Nov-28 00:00:00.0000, 1.852088593533379E+08, -5.500501346747418E+09, 1.330022271691415E+09,
2461379.500000000, A.D. 2026-Dec-05 00:00:00.0000, 1.885418161839199E+08, -5.500882837704168E+09, 1.329973979063177E+09,
2461386.500000000, A.D. 2026-Dec-12 00:00:00.0000, 1.918747696400002E+08, -5.501262924712079E+09, 1.329925329474665E+09,
2461393.500000000, A.D. 2026-Dec-19 00:00:00.0000, 1.952077214808820E+08, -5.501641606729712E+09, 1.329876323006415E+09,
2461400.500000000, A.D. 2026-Dec-26 00:00:00.0000, 1.985406733919117E+08, -5.502018882476135E+09, 1.329826959727889E+09,
2461407.500000000, A.D. 2027-Jan-02 00:00:00.0000, 2.018736268788444E+08, -5.502394750339802E+09, 1.329777239712719E+09,
2461414.500000000, A.D. 2027-Jan-09 00:00:00.0000, 2.052065831271935E+08, -5.502769208392857E+09, 1.329727163050046E+09,
2461421.500000000, A.D. 2027-Jan-16 00:00:00.0000, 2.085395428608524E+08, -5.503142254502273E+09, 1.329676729849512E+09,
2461428.500000000, A.D. 2027-Jan-23 00:00:00.0000, 2.118725062445695E+08, -5.503513886577651E+09, 1.329625940232479E+09,
2461435.500000000, A.D. 2027-Jan-30 00:00:00.0000, 2.152054730164002E+08, -5.503884103003665E+09, 1.329574794288310E+09,
2461442.500000000, A.D. 2027-Feb-06 00:00:00.0000, 2.185384432732258E+08, -5.504252902917247E+09, 1.329523291984456E+09,
2461449.500000000, A.D. 2027-Feb-13 00:00:00.0000, 2.218714184474699E+08, -5.504620285110015E+09, 1.329471433172110E+09,
2461456.500000000, A.D. 2027-Feb-20 00:00:00.0000, 2.252044001098098E+08, -5.504986246346982E+09, 1.329419217839426E+09,
2461463.500000000, A.D. 2027-Feb-27 00:00:00.0000, 2.285373879928500E+08, -5.505350782315302E+09, 1.329366646221426E+09,
2461470.500000000, A.D. 2027-Mar-06 00:00:00.0000, 2.318703802532653E+08, -5.505713889280500E+09, 1.329313718646724E+09,
2461477.500000000, A.D. 2027-Mar-13 00:00:00.0000, 2.352033743718596E+08, -5.506075564400697E+09, 1.329260435435101E+09,
2461484.500000000, A.D. 2027-Mar-20 00:00:00.0000, 2.385363675619824E+08, -5.506435805533504E+09, 1.329206796881160E+09,
2461491.500000000, A.D. 2027-Mar-27 00:00:00.0000, 2.418693568882703E+08, -5.506794611084511E+09, 1.329152803260501E+09,
2461498.500000000, A.D. 2027-Apr-03 00:00:00.0000, 2.452023392986073E+08, -5.507151979945121E+09, 1.329098454835818E+09,
2461505.500000000, A.D. 2027-Apr-10 00:00:00.0000, 2.485353116305483E+08, -5.507507911496648E+09, 1.329043751859101E+09,
2461512.500000000, A.D. 2027-Apr-17 00:00:00.0000, 2.518682706142796E+08, -5.507862405695008E+09, 1.328988694566707E+09,
2461519.500000000, A.D. 2027-Apr-24 00:00:00.0000, 2.552012129513317E+08, -5.508215463298149E+09, 1.328933283154923E+09,
2461526.500000000, A.D. 2027-May-01 00:00:00.0000, 2.585341357686734E+08, -5.508567086208426E+09, 1.328877517710819E+09,
2461533.500000000, A.D. 2027-May-08 00:00:00.0000, 2.618670377555898E+08, -5.508917277181498E+09, 1.328821398131355E+09,
2461540.500000000, A.D. 2027-May-15 00:00:00.0000, 2.651999194864619E+08, -5.509266037948353E+09, 1.328764924245977E+09,
2461547.500000000, A.D. 2027-May-22 00:00:00.0000, 2.685327813655912E+08, -5.509613368342032E+09, 1.328708096074377E+09,
2461554.500000000, A.D. 2027-May-29 00:00:00.0000, 2.718656225499938E+08, -5.509959267897317E+09, 1.328650913791680E+09,
2461561.500000000, A.D. 2027-Jun-05 00:00:00.0000, 2.751984417350016E+08, -5.510303736791633E+09, 1.328593377575954E+09,
2461568.500000000, A.D. 2027-Jun-12 00:00:00.0000, 2.785312377951454E+08, -5.510646775695374E+09, 1.328535487557552E+09,
2461575.500000000, A.D. 2027-Jun-19 00:00:00.0000, 2.818640099492960E+08, -5.510988385466673E+09, 1.328477243824381E+09,
2461582.500000000, A.D. 2027-Jun-26 00:00:00.0000, 2.851967577294791E+08, -5.511328566951896E+09, 1.328418646436305E+09,
2461589.500000000, A.D. 2027-Jul-03 00:00:00.0000, 2.885294808854959E+08, -5.511667320883604E+09, 1.328359695437435E+09,
2461596.500000000, A.D. 2027-Jul-10 00:00:00.0000, 2.918621792621886E+08, -5.512004647867221E+09, 1.328300390863895E+09,
2461603.500000000, A.D. 2027-Jul-17 00:00:00.0000, 2.951948526857005E+08, -5.512340548495317E+09, 1.328240732740816E+09,
2461610.500000000, A.D. 2027-Jul-24 00:00:00.0000, 2.985275010151578E+08, -5.512675023652256E+09, 1.328180721049277E+09,
2461617.500000000, A.D. 2027-Jul-31 00:00:00.0000, 3.018601247712008E+08, -5.513008074773733E+09, 1.328120355644997E+09,
2461624.500000000, A.D. 2027-Aug-07 00:00:00.0000, 3.051927261406486E+08, -5.513339702909465E+09, 1.328059636241437E+09,
2461631.500000000, A.D. 2027-Aug-14 00:00:00.0000, 3.085253080561705E+08, -5.513669906842334E+09, 1.327998562647804E+09,
2461638.500000000, A.D. 2027-Aug-21 00:00:00.0000, 3.118578719691864E+08, -5.513998683628181E+09, 1.327937134930339E+09,
2461645.500000000, A.D. 2027-Aug-28 00:00:00.0000, 3.151904177470595E+08, -5.514326030353024E+09, 1.327875353280531E+09,
2461652.500000000, A.D. 2027-Sep-04 00:00:00.0000, 3.185229445134323E+08, -5.514651944605393E+09, 1.327813217902933E+09,
2461659.500000000, A.D. 2027-Sep-11 00:00:00.0000, 3.218554510363925E+08, -5.514976424325095E+09, 1.327750728996332E+09,
2461666.500000000, A.D. 2027-Sep-18 00:00:00.0000, 3.251879357976526E+08, -5.515299467678462E+09, 1.327687886762664E+09,
2461673.500000000, A.D. 2027-Sep-25 00:00:00.0000, 3.285203969716049E+08, -5.515621073037517E+09, 1.327624691416092E+09,
2461680.500000000, A.D. 2027-Oct-02 00:00:00.0000, 3.318528323893190E+08, -5.515941239035121E+09, 1.327561143187332E+09,
2461687.500000000, A.D. 2027-Oct-09 00:00:00.0000, 3.351852395099970E+08, -5.516259964700237E+09, 1.327497242320555E+09,
2461694.500000000, A.D. 2027-Oct-16 00:00:00.0000, 3.385176154631535E+08, -5.516577249727747E+09, 1.327432989052360E+09,
2461701.500000000, A.D. 2027-Oct-23 00:00:00.0000, 3.418499574215270E+08, -5.516893094888143E+09, 1.327368383548337E+09,
2461708.500000000, A.D. 2027-Oct-30 00:00:00.0000, 3.451822636795735E+08, -5.517207501966393E+09, 1.327303425812560E+09,
2461715.500000000, A.D. 2027-Nov-06 00:00:00.0000, 3.485145342742164E+08, -5.517520472101568E+09, 1.327238115768853E+09,
2461722.500000000, A.D. 2027-Nov-13 00:00:00.0000, 3.518467691624979E+08, -5.517832004603216E+09, 1.327172453526141E+09,
2461729.500000000, A.D. 2027-Nov-20 00:00:00.0000, 3.551789668580436E+08, -5.518142098430174E+09, 1.327106439383118E+09,
2461736.500000000, A.D. 2027-Nov-27 00:00:00.0000, 3.585111251439451E+08, -5.518450753367258E+09, 1.327040073666148E+09,
2461743.500000000, A.D. 2027-Dec-04 00:00:00.0000, 3.618432418385196E+08, -5.518757969985803E+09, 1.326973356660724E+09,
2461750.500000000, A.D. 2027-Dec-11 00:00:00.0000, 3.651753150633768E+08, -5.519063749351938E+09, 1.326906288608248E+09,
2461757.500000000, A.D. 2027-Dec-18 00:00:00.0000, 3.685073432887754E+08, -5.519368092821632E+09, 1.326838869715285E+09,
2461764.500000000, A.D. 2027-Dec-25 00:00:00.0000, 3.718393253082556E+08, -5.519671001924520E+09, 1.326771100161258E+09,
2461771.500000000, A.D. 2028-Jan-01 00:00:00.0000, 3.751712601839710E+08, -5.519972478321867E+09, 1.326702980102084E+09,
$$EOE